,code,station_name,line,color,opening,type,blk_no,road_name,building,address,postal,x,y,latitude,longitude,planning_area_ura,region_ura
0,NS10,Admiralty,North-South Line ,Red,10/02/1996,MRT,70,WOODLANDS AVENUE 7,ADMIRALTY MRT STATION (NS10),70 WOODLANDS AVENUE 7 ADMIRALTY MRT STATION (NS10) SINGAPORE 738344,738344,24402.38663,46918.5068,1.440588562,103.8009905,WOODLANDS,NORTH REGION
1,EW9,Aljunied,East-West Line,Green,4/11/1989,MRT,81,LORONG 25 GEYLANG,ALJUNIED MRT STATION (EW9),81 LORONG 25 GEYLANG ALJUNIED MRT STATION (EW9) SINGAPORE 388310,388310,33518.60487,33190.00202,1.316432612,103.882906,GEYLANG,CENTRAL REGION
2,NS16,Ang Mo Kio,North-South Line ,Red,7/11/1987,MRT,2795,ANG MO KIO AVENUE 8,ANG MO KIO MRT STATION (NS16),2795 ANG MO KIO AVENUE 8 ANG MO KIO MRT STATION (NS16) SINGAPORE 569812,569812,29807.26115,39105.736,1.36993285,103.8495581,ANG MO KIO,NORTH-EAST REGION
3,SE3,Bakau,Sengkang LRT,Grey,18/01/2003,LRT,50,RIVERVALE DRIVE,BAKAU LRT STATION (SE3),50 RIVERVALE DRIVE BAKAU LRT STATION (SE3) SINGAPORE 545053,545053,36023.43334,41102.99669,1.387994311,103.9054153,SENGKANG,NORTH-EAST REGION
4,BP9,Bangkit,Bukit Panjang LRT,Grey,6/11/1999,LRT,20,BUKIT PANJANG RING ROAD,BANGKIT LRT STATION (BP9),20 BUKIT PANJANG RING ROAD BANGKIT LRT STATION (BP9) SINGAPORE 679939,679939,21248.05659,40221.44841,1.38002223,103.7726474,BUKIT PANJANG,WEST REGION
5,CC12,Bartley,Circle Line,Orange,28/05/2009,MRT,90,BARTLEY ROAD,BARTLEY MRT STATION (CC12),90 BARTLEY ROAD BARTLEY MRT STATION (CC12) SINGAPORE 539788,539788,33214.93397,36072.52553,1.342501178,103.8801779,TOA PAYOH,CENTRAL REGION
6,CE1,Bayfront,Circle Line Extension,Orange,14/01/2012,MRT,11,BAYFRONT AVENUE,BAYFRONT MRT STATION (DT16 / CE1),11 BAYFRONT AVENUE BAYFRONT MRT STATION (DT16 / CE1) SINGAPORE 018957,018957,30867.00927,29368.62503,1.281873789,103.8590798,DOWNTOWN CORE,CENTRAL REGION
7,DT16,Bayfront,Downtown Line,Blue,22/12/2013,MRT,11,BAYFRONT AVENUE,BAYFRONT MRT STATION (DT16 / CE1),11 BAYFRONT AVENUE BAYFRONT MRT STATION (DT16 / CE1) SINGAPORE 018957,018957,30867.00927,29368.62503,1.281873789,103.8590798,DOWNTOWN CORE,CENTRAL REGION
8,TE29,Bayshore,Thomson-East Coast Line,Brown,23/06/2024,MRT,31,BAYSHORE ROAD,BAYSHORE MRT STATION (TE29),31 BAYSHORE ROAD BAYSHORE MRT STATION (TE29) SINGAPORE 469958,469958,40129.68705,32824.19446,1.313122483,103.9423098,BEDOK,EAST REGION
9,DT5,Beauty World,Downtown Line,Blue,27/12/2015,MRT,101,UPPER BUKIT TIMAH ROAD,BEAUTY WORLD MRT STATION (DT5),101 UPPER BUKIT TIMAH ROAD BEAUTY WORLD MRT STATION (DT5) SINGAPORE 588216,588216,21598.16648,35931.23589,1.341223176,103.7757943,BUKIT TIMAH,CENTRAL REGION
10,EW5,Bedok,East-West Line,Green,4/11/1989,MRT,315,NEW UPPER CHANGI ROAD,BEDOK MRT STATION (EW5),315 NEW UPPER CHANGI ROAD BEDOK MRT STATION (EW5) SINGAPORE 467347,467347,38757.95205,34024.70478,1.323979969,103.9299845,BEDOK,EAST REGION
11,DT29,Bedok North,Downtown Line,Blue,21/10/2017,MRT,651,BEDOK NORTH ROAD,BEDOK NORTH MRT STATION (DT29),651 BEDOK NORTH ROAD BEDOK NORTH MRT STATION (DT29) SINGAPORE 479481,479481,37421.74382,35214.68039,1.334742117,103.9179783,BEDOK,EAST REGION
12,DT30,Bedok Reservoir,Downtown Line,Blue,21/10/2017,MRT,371,BEDOK NORTH AVENUE 3,BEDOK RESERVOIR MRT STATION (DT30),371 BEDOK NORTH AVENUE 3 BEDOK RESERVOIR MRT STATION (DT30) SINGAPORE 469724,469724,39008.31316,35421.04087,1.33660783,103.9322346,BEDOK,EAST REGION
13,DT21,Bencoolen,Downtown Line,Blue,21/10/2017,MRT,31,BENCOOLEN STREET,BENCOOLEN MRT STATION (DT21),31 BENCOOLEN STREET BENCOOLEN MRT STATION (DT21) SINGAPORE 189658,189658,29895.86395,31253.32587,1.298918434,103.8503538,ROCHOR,CENTRAL REGION
14,DT23,Bendemeer,Downtown Line,Blue,21/10/2017,MRT,11,KALLANG BAHRU,BENDEMEER MRT STATION (DT23),11 KALLANG BAHRU BENDEMEER MRT STATION (DT23) SINGAPORE 339356,339356,31300.76761,32884.77092,1.313672528,103.8629776,KALLANG,CENTRAL REGION
15,NS17,Bishan,North-South Line ,Red,7/11/1987,MRT,200,BISHAN ROAD,BISHAN MRT STATION (NS17),200 BISHAN ROAD BISHAN MRT STATION (NS17) SINGAPORE 579827,579827,29649.89881,36994.43302,1.350838988,103.848144,BISHAN,CENTRAL REGION
16,CC15,Bishan,Circle Line,Orange,28/05/2009,MRT,17,BISHAN PLACE,BISHAN MRT STATION (CC15),17 BISHAN PLACE BISHAN MRT STATION (CC15) SINGAPORE 579842,579842,29760.77555,37047.15733,1.351315801,103.8491403,BISHAN,CENTRAL REGION
17,NE9,Boon Keng,North East Line,Purple,20/06/2003,MRT,900,SERANGOON ROAD,BOON KENG MRT STATION (NE9),900 SERANGOON ROAD BOON KENG MRT STATION (NE9) SINGAPORE 328260,328260,31144.04501,33510.97461,1.319335709,103.8615695,KALLANG,CENTRAL REGION
18,EW27,Boon Lay,East-West Line,Green,6/07/1990,MRT,301,BOON LAY WAY,BOON LAY MRT STATION (EW27),301 BOON LAY WAY BOON LAY MRT STATION (EW27) SINGAPORE 649846,649846,13837.98272,35641.91912,1.338604055,103.7060646,JURONG WEST,WEST REGION
19,CC19,Botanic Gardens,Circle Line,Orange,8/10/2011,MRT,100,CLUNY PARK ROAD,BOTANIC GARDENS MRT STATION (CC19),100 CLUNY PARK ROAD BOTANIC GARDENS MRT STATION (CC19) SINGAPORE 257494,257494,25959.6005,33818.14422,1.322113736,103.8149845,TANGLIN,CENTRAL REGION
20,DT9,Botanic Gardens,Downtown Line,Blue,27/12/2015,MRT,491,BUKIT TIMAH ROAD,BOTANIC GARDENS MRT STATION (DT9),491 BUKIT TIMAH ROAD BOTANIC GARDENS MRT STATION (DT9) SINGAPORE 259777,259777,26074.17209,33859.53548,1.322488071,103.816014,TANGLIN,CENTRAL REGION
21,NS18,Braddell,North-South Line ,Red,7/11/1987,MRT,377,LORONG 1 TOA PAYOH,BRADDELL MRT STATION (NS18),377 LORONG 1 TOA PAYOH BRADDELL MRT STATION (NS18) SINGAPORE 319756,319756,29500.23495,35847.77198,1.340469001,103.8467991,TOA PAYOH,CENTRAL REGION
22,CC2,Bras Basah,Circle Line,Orange,17/04/2010,MRT,65,BRAS BASAH ROAD,BRAS BASAH MRT STATION (CC2),65 BRAS BASAH ROAD BRAS BASAH MRT STATION (CC2) SINGAPORE 189561,189561,29930.76738,31025.9016,1.296861686,103.8506674,MUSEUM,CENTRAL REGION
23,TE7,Bright Hill,Thomson-East Coast Line,Brown,28/08/2021,MRT,100,SIN MING AVENUE,BRIGHT HILL MRT STATION (TE7),100 SIN MING AVENUE BRIGHT HILL MRT STATION (TE7) SINGAPORE 575737,575737,27952.7071,38370.44389,1.363283185,103.8328936,BISHAN,CENTRAL REGION
24,NE15,Buangkok,North East Line,Purple,15/01/2006,MRT,10,SENGKANG CENTRAL,BUANGKOK MRT STATION (NE15),10 SENGKANG CENTRAL BUANGKOK MRT STATION (NE15) SINGAPORE 545061,545061,34655.42506,40536.34017,1.38287002,103.8931226,SENGKANG,NORTH-EAST REGION
25,EW12,Bugis,East-West Line,Green,4/11/1989,MRT,220,VICTORIA STREET,BUGIS MRT STATION (EW12),220 VICTORIA STREET BUGIS MRT STATION (EW12) SINGAPORE 188022,188022,30491.60007,31424.35127,1.300465085,103.8557067,ROCHOR,CENTRAL REGION
26,DT14,Bugis,Downtown Line,Blue,22/12/2013,MRT,191,ROCHOR ROAD,BUGIS MRT STATION (DT14),191 ROCHOR ROAD BUGIS MRT STATION (DT14) SINGAPORE 188476,188476,30649.54861,31297.01674,1.299313503,103.857126,DOWNTOWN CORE,CENTRAL REGION
27,NS2,Bukit Batok,North-South Line ,Red,10/03/1990,MRT,10,BUKIT BATOK CENTRAL,BUKIT BATOK MRT STATION (NS2),10 BUKIT BATOK CENTRAL BUKIT BATOK MRT STATION (NS2) SINGAPORE 659958,659958,18679.32232,36794.92602,1.349033312,103.7495665,BUKIT BATOK,WEST REGION
28,NS3,Bukit Gombak,North-South Line ,Red,10/03/1990,MRT,802,BUKIT BATOK WEST AVENUE 5,BUKIT GOMBAK MRT STATION (NS3),802 BUKIT BATOK WEST AVENUE 5 BUKIT GOMBAK MRT STATION (NS3) SINGAPORE 659083,659083,18926.9127,37854.03588,1.358611591,103.7517909,BUKIT BATOK,WEST REGION
29,DT1,Bukit Panjang,Downtown Line,Blue,27/12/2015,MRT,950,UPPER BUKIT TIMAH ROAD,BUKIT PANJANG MRT STATION (DT1),950 UPPER BUKIT TIMAH ROAD BUKIT PANJANG MRT STATION (DT1) SINGAPORE 678213,678213,20011.39812,40108.68377,1.379002116,103.7615351,BUKIT BATOK,WEST REGION
30,BP6,Bukit Panjang,Bukit Panjang LRT,Grey,6/11/1999,LRT,11,PETIR ROAD,BUKIT PANJANG LRT STATION (BP6),11 PETIR ROAD BUKIT PANJANG LRT STATION (BP6) SINGAPORE 678268,678268,20185.87304,39989.79161,1.377926946,103.7631029,BUKIT PANJANG,WEST REGION
31,EW21,Buona Vista,East-West Line,Green,12/03/1988,MRT,100,NORTH BUONA VISTA ROAD,BUONA VISTA MRT STATION (EW21),100 NORTH BUONA VISTA ROAD BUONA VISTA MRT STATION (EW21) SINGAPORE 139345,139345,23207.2578,32171.7151,1.307223708,103.7902535,QUEENSTOWN,CENTRAL REGION
32,CC22,Buona Vista,Circle Line,Orange,8/10/2011,MRT,150,NORTH BUONA VISTA ROAD,BUONA VISTA MRT STATION (CC22),150 NORTH BUONA VISTA ROAD BUONA VISTA MRT STATION (CC22) SINGAPORE 139350,139350,23257.99303,32106.56305,1.306634504,103.7907094,QUEENSTOWN,CENTRAL REGION
33,CC17,Caldecott,Circle Line,Orange,8/10/2011,MRT,38,TOA PAYOH RISE,CALDECOTT MRT STATION (CC17),38 TOA PAYOH RISE CALDECOTT MRT STATION (CC17) SINGAPORE 298113,298113,28691.24505,35538.76801,1.337674508,103.8395298,TOA PAYOH,CENTRAL REGION
34,TE9,Caldecott,Thomson-East Coast Line,Brown,28/08/2021,MRT,1,TOA PAYOH LINK,CALDECOTT MRT STATION (TE9),1 TOA PAYOH LINK CALDECOTT MRT STATION (TE9) SINGAPORE 297608,297608,28761.5758,35491.34314,1.337245613,103.8401618,TOA PAYOH,CENTRAL REGION
35,NS12,Canberra,North-South Line ,Red,2/11/2019,MRT,11,CANBERRA LINK,CANBERRA MRT STATION (NS12),11 CANBERRA LINK CANBERRA MRT STATION (NS12) SINGAPORE 756972,756972,27597.59694,47193.60088,1.443076641,103.8297026,SEMBAWANG,NORTH REGION
36,DT2,Cashew,Downtown Line,Blue,27/12/2015,MRT,1,CASHEW ROAD,CASHEW MRT STATION (DT2),1 CASHEW ROAD CASHEW MRT STATION (DT2) SINGAPORE 679696,679696,20334.55891,39092.85854,1.369815449,103.7644392,BUKIT PANJANG,WEST REGION
37,CG2,Changi Airport,Changi Airport Branch Line,Green,8/02/2002,MRT,70,AIRPORT BOULEVARD,CHANGI AIRPORT MRT STATION (CG2),70 AIRPORT BOULEVARD CHANGI AIRPORT MRT STATION (CG2) SINGAPORE 819661,819661,45201.32039,37729.19338,1.357478974,103.9878836,CHANGI,EAST REGION
38,SW1,Cheng Lim,Sengkang LRT,Grey,1/01/2013,LRT,5,ANCHORVALE STREET,CHENG LIM LRT STATION (SW1),5 ANCHORVALE STREET CHENG LIM LRT STATION (SW1) SINGAPORE 545047,545047,34730.4629,42018.88883,1.396277633,103.8937972,SENGKANG,NORTH-EAST REGION
39,NE4,Chinatown,North East Line,Purple,20/06/2003,MRT,151,NEW BRIDGE ROAD,CHINATOWN MRT STATION (NE4),151 NEW BRIDGE ROAD CHINATOWN MRT STATION (NE4) SINGAPORE 059443,059443,29124.94803,29643.48021,1.284359593,103.8434267,OUTRAM,CENTRAL REGION
40,DT19,Chinatown,Downtown Line,Blue,22/12/2013,MRT,91,UPPER CROSS STREET,CHINATOWN MRT STATION (DT19),91 UPPER CROSS STREET CHINATOWN MRT STATION (DT19) SINGAPORE 058362,058362,29316.049,29628.47894,1.284223919,103.8451438,OUTRAM,CENTRAL REGION
41,EW25,Chinese Garden,East-West Line,Green,5/11/1988,MRT,151,BOON LAY WAY,CHINESE GARDEN MRT STATION (EW25),151 BOON LAY WAY CHINESE GARDEN MRT STATION (EW25) SINGAPORE 609959,609959,16790.74663,36056.30189,1.342352821,103.7325967,JURONG EAST,WEST REGION
42,NS4,Choa Chu Kang,North-South Line ,Red,10/03/1990,MRT,10,CHOA CHU KANG AVENUE 4,CHOA CHU KANG MRT STATION (NS4),10 CHOA CHU KANG AVENUE 4 CHOA CHU KANG MRT STATION (NS4) SINGAPORE 689810,689810,18101.2472,40812.12161,1.385363165,103.7443708,CHOA CHU KANG,WEST REGION
43,BP1,Choa Chu Kang,Bukit Panjang LRT,Grey,6/11/1999,LRT,15,CHOA CHU KANG AVENUE 4,CHOA CHU KANG LRT STATION (BP1),15 CHOA CHU KANG AVENUE 4 CHOA CHU KANG LRT STATION (BP1) SINGAPORE 689813,689813,18119.82055,40744.91842,1.384755411,103.7445377,CHOA CHU KANG,WEST REGION
44,NS25,City Hall,North-South Line ,Red,12/12/1987,MRT,150,NORTH BRIDGE ROAD,CITY HALL MRT STATION (EW13 / NS25),150 NORTH BRIDGE ROAD CITY HALL MRT STATION (EW13 / NS25) SINGAPORE 179100,179100,30144.25038,30591.90081,1.292936722,103.8525856,DOWNTOWN CORE,CENTRAL REGION
45,EW13,City Hall,East-West Line,Green,12/12/1987,MRT,150,NORTH BRIDGE ROAD,CITY HALL MRT STATION (EW13 / NS25),150 NORTH BRIDGE ROAD CITY HALL MRT STATION (EW13 / NS25) SINGAPORE 179100,179100,30144.25038,30591.90081,1.292936722,103.8525856,DOWNTOWN CORE,CENTRAL REGION
46,NE5,Clarke Quay,North East Line,Purple,20/06/2003,MRT,10,EU TONG SEN STREET,CLARKE QUAY MRT STATION (NE5),10 EU TONG SEN STREET CLARKE QUAY MRT STATION (NE5) SINGAPORE 059815,059815,29473.12494,30088.70379,1.288386024,103.8465552,SINGAPORE RIVER,CENTRAL REGION
47,EW23,Clementi,East-West Line,Green,12/03/1988,MRT,3150,COMMONWEALTH AVENUE WEST,CLEMENTI MRT STATION (EW23),3150 COMMONWEALTH AVENUE WEST CLEMENTI MRT STATION (EW23) SINGAPORE 129580,129580,20418.10551,33044.49447,1.315116253,103.7651915,CLEMENTI,WEST REGION
48,EW20,Commonwealth,East-West Line,Green,12/03/1988,MRT,375,COMMONWEALTH AVENUE,COMMONWEALTH MRT STATION (EW20),375 COMMONWEALTH AVENUE COMMONWEALTH MRT STATION (EW20) SINGAPORE 149735,149735,24094.79514,31649.59892,1.302501999,103.7982285,QUEENSTOWN,CENTRAL REGION
49,SE1,Compassvale,Sengkang LRT,Grey,18/01/2003,LRT,10,COMPASSVALE STREET,COMPASSVALE LRT STATION (SE1),10 COMPASSVALE STREET COMPASSVALE LRT STATION (SE1) SINGAPORE 545055,545055,35475.56314,41821.57811,1.394493045,103.9004925,SENGKANG,NORTH-EAST REGION
50,PE3,Coral Edge,Punggol LRT,Grey,29/01/2005,LRT,70,PUNGGOL FIELD,CORAL EDGE LRT STATION (PE3),70 PUNGGOL FIELD CORAL EDGE LRT STATION (PE3) SINGAPORE 828856,828856,36820.84447,41757.06448,1.393909229,103.9125808,PUNGGOL,NORTH-EAST REGION
51,PE1,Cove,Punggol LRT,Grey,29/01/2005,LRT,50,PUNGGOL FIELD,COVE LRT STATION (PE1),50 PUNGGOL FIELD COVE LRT STATION (PE1) SINGAPORE 828858,828858,36084.22898,42351.13377,1.399281988,103.9059619,PUNGGOL,NORTH-EAST REGION
52,CC8,Dakota,Circle Line,Orange,17/04/2010,MRT,201,OLD AIRPORT ROAD,DAKOTA MRT STATION (CC8),201 OLD AIRPORT ROAD DAKOTA MRT STATION (CC8) SINGAPORE 397973,397973,34204.0253,32318.17446,1.308547984,103.8890647,GEYLANG,CENTRAL REGION
53,PE7,Damai,Punggol LRT,Grey,20/06/2011,LRT,40,PUNGGOL DRIVE,DAMAI LRT STATION (PE7),40 PUNGGOL DRIVE DAMAI LRT STATION (PE7) SINGAPORE 828855,828855,36378.18268,43009.37942,1.405234836,103.9086035,PUNGGOL,NORTH-EAST REGION
54,NS24,Dhoby Ghaut,North-South Line ,Red,12/12/1987,MRT,11,ORCHARD ROAD,DHOBY GHAUT MRT STATION (NS24),11 ORCHARD ROAD DHOBY GHAUT MRT STATION (NS24) SINGAPORE 238826,238826,29423.98045,31229.31637,1.298701325,103.8461137,MUSEUM,CENTRAL REGION
55,NE6,Dhoby Ghaut,North East Line,Purple,20/06/2003,MRT,60,ORCHARD ROAD,DHOBY GHAUT MRT STATION (NE6),60 ORCHARD ROAD DHOBY GHAUT MRT STATION (NE6) SINGAPORE 238889,238889,29354.40792,31340.25089,1.299704581,103.8454885,MUSEUM,CENTRAL REGION
56,CC1,Dhoby Ghaut,Circle Line,Orange,17/04/2010,MRT,13,ORCHARD ROAD,DHOBY GHAUT MRT STATION (CC1),13 ORCHARD ROAD DHOBY GHAUT MRT STATION (CC1) SINGAPORE 238893,238893,29443.88241,31252.57238,1.298911644,103.8462925,MUSEUM,CENTRAL REGION
57,EW22,Dover,East-West Line,Green,18/10/2001,MRT,200,COMMONWEALTH AVENUE WEST,DOVER MRT STATION (EW22),200 COMMONWEALTH AVENUE WEST DOVER MRT STATION (EW22) SINGAPORE 138677,138677,21914.55093,32634.11863,1.311405293,103.7786378,QUEENSTOWN,CENTRAL REGION
58,DT17,Downtown,Downtown Line,Blue,22/12/2013,MRT,15,CENTRAL BOULEVARD,DOWNTOWN MRT STATION (DT17),15 CENTRAL BOULEVARD DOWNTOWN MRT STATION (DT17) SINGAPORE 018969,018969,30172.66881,29100.20877,1.279446382,103.8528408,DOWNTOWN CORE,CENTRAL REGION
59,CC3,Esplanade,Circle Line,Orange,17/04/2010,MRT,90,BRAS BASAH ROAD,ESPLANADE MRT STATION (CC3),90 BRAS BASAH ROAD ESPLANADE MRT STATION (CC3) SINGAPORE 189562,189562,30421.99348,30671.62777,1.293657725,103.8550812,DOWNTOWN CORE,CENTRAL REGION
60,EW7,Eunos,East-West Line,Green,4/11/1989,MRT,30,EUNOS CRESCENT,EUNOS MRT STATION (EW7),30 EUNOS CRESCENT EUNOS MRT STATION (EW7) SINGAPORE 409423,409423,35779.98835,33560.5859,1.319783549,103.9032258,GEYLANG,CENTRAL REGION
61,CG1,Expo,Changi Airport Branch Line,Green,10/01/2001,MRT,21,CHANGI SOUTH AVENUE 1,EXPO MRT STATION (CG1),21 CHANGI SOUTH AVENUE 1 EXPO MRT STATION (CG1) SINGAPORE 486065,486065,42270.62323,35193.62235,1.334549778,103.9615482,TAMPINES,EAST REGION
62,DT35,Expo,Downtown Line,Blue,21/10/2017,MRT,2,EXPO DRIVE,EXPO MRT STATION (DT35),2 EXPO DRIVE EXPO MRT STATION (DT35) SINGAPORE 485985,485985,42362.60346,35285.70839,1.335382526,103.9623747,TAMPINES,EAST REGION
63,BP10,Fajar,Bukit Panjang LRT,Grey,6/11/1999,LRT,40,FAJAR ROAD,FAJAR LRT STATION (BP10),40 FAJAR ROAD FAJAR LRT STATION (BP10) SINGAPORE 679004,679004,21052.18744,40724.67434,1.384573177,103.7708872,BUKIT PANJANG,WEST REGION
64,SW2,Farmway,Sengkang LRT,Grey,15/11/2007,LRT,35,ANCHORVALE STREET,FARMWAY LRT STATION (SW2),35 ANCHORVALE STREET FARMWAY LRT STATION (SW2) SINGAPORE 545048,545048,34230.52083,42117.57154,1.397170196,103.8893048,SENGKANG,NORTH-EAST REGION
65,NE8,Farrer Park,North East Line,Purple,20/06/2003,MRT,250,RACE COURSE ROAD,FARRER PARK MRT STATION (NE8),250 RACE COURSE ROAD FARRER PARK MRT STATION (NE8) SINGAPORE 218703,218703,30243.52065,32689.37956,1.311905573,103.8534777,ROCHOR,CENTRAL REGION
66,CC20,Farrer Road,Circle Line,Orange,8/10/2011,MRT,71,FARRER ROAD,FARRER ROAD MRT STATION (CC20),71 FARRER ROAD FARRER ROAD MRT STATION (CC20) SINGAPORE 268857,268857,25113.2012,33301.26022,1.317439152,103.8073792,BUKIT TIMAH,CENTRAL REGION
67,SW5,Fernvale,Sengkang LRT,Grey,29/01/2005,LRT,10,FERNVALE ROAD,FERNVALE LRT STATION (SW5),10 FERNVALE ROAD FERNVALE LRT STATION (SW5) SINGAPORE 797698,797698,32784.22797,41533.22941,1.391885892,103.8763086,SENGKANG,NORTH-EAST REGION
68,DT20,Fort Canning,Downtown Line,Blue,21/10/2017,MRT,170,RIVER VALLEY ROAD,FORT CANNING MRT STATION (DT20),170 RIVER VALLEY ROAD FORT CANNING MRT STATION (DT20) SINGAPORE 179038,179038,29225.62761,30541.60877,1.292481948,103.8443314,SINGAPORE RIVER,CENTRAL REGION
69,TE22,Gardens by the Bay,Thomson-East Coast Line,Brown,13/11/2022,MRT,11,MARINA MALL,GARDENS BY THE BAY MRT STATION (TE22),11 MARINA MALL GARDENS BY THE BAY MRT STATION (TE22) SINGAPORE 019396,019396,31799.07218,28994.17088,1.278487259,103.8674547,MARINA SOUTH,CENTRAL REGION
70,DT24,Geylang Bahru,Downtown Line,Blue,21/10/2017,MRT,541,KALLANG BAHRU,GEYLANG BAHRU MRT STATION (DT24),541 KALLANG BAHRU GEYLANG BAHRU MRT STATION (DT24) SINGAPORE 339355,339355,32262.86126,33728.31269,1.321301102,103.8716226,KALLANG,CENTRAL REGION
71,TE15,Great World,Thomson-East Coast Line,Brown,13/11/2022,MRT,351,RIVER VALLEY ROAD,GREAT WORLD MRT STATION (TE15),351 RIVER VALLEY ROAD GREAT WORLD MRT STATION (TE15) SINGAPORE 238384,238384,28044.76787,30703.73245,1.293948162,103.8337208,RIVER VALLEY,CENTRAL REGION
72,EW30,Gul Circle,East-West Line,Green,18/06/2017,MRT,7A,TUAS ROAD,GUL CIRCLE MRT STATION (EW30),7A TUAS ROAD GUL CIRCLE MRT STATION (EW30) SINGAPORE 637288,637288,8770.351501,33526.57337,1.319470901,103.6605305,PIONEER,WEST REGION
73,NE1,HarbourFront,North East Line,Purple,20/06/2003,MRT,81,TELOK BLANGAH ROAD,HARBOURFRONT MRT STATION (NE1 / CC29),81 TELOK BLANGAH ROAD HARBOURFRONT MRT STATION (NE1 / CC29) SINGAPORE 098867,098867,26688.0367,27545.85343,1.265389384,103.8215302,BUKIT MERAH,CENTRAL REGION
74,CC29,HarbourFront,Circle Line,Orange,8/10/2011,MRT,81,TELOK BLANGAH ROAD,HARBOURFRONT MRT STATION (NE1 / CC29),81 TELOK BLANGAH ROAD HARBOURFRONT MRT STATION (NE1 / CC29) SINGAPORE 098867,098867,26688.0367,27545.85343,1.265389384,103.8215302,BUKIT MERAH,CENTRAL REGION
75,TE16,Havelock,Thomson-East Coast Line,Brown,13/11/2022,MRT,110,ZION ROAD,HAVELOCK MRT STATION (TE16),110 ZION ROAD HAVELOCK MRT STATION (TE16) SINGAPORE 168604,168604,28029.74366,30101.88222,1.28850524,103.8335858,BUKIT MERAH,CENTRAL REGION
76,CC25,Haw Par Villa,Circle Line,Orange,8/10/2011,MRT,270,PASIR PANJANG ROAD,HAW PAR VILLA MRT STATION (CC25),270 PASIR PANJANG ROAD HAW PAR VILLA MRT STATION (CC25) SINGAPORE 117396,117396,22261.1431,29445.80204,1.282571358,103.7817527,QUEENSTOWN,CENTRAL REGION
77,DT3,Hillview,Downtown Line,Blue,27/12/2015,MRT,510,UPPER BUKIT TIMAH ROAD,HILLVIEW MRT STATION (DT3),510 UPPER BUKIT TIMAH ROAD HILLVIEW MRT STATION (DT3) SINGAPORE 678211,678211,20666.06755,38266.78985,1.362344868,103.7674183,BUKIT PANJANG,WEST REGION
78,CC21,Holland Village,Circle Line,Orange,8/10/2011,MRT,200,HOLLAND AVENUE,HOLLAND VILLAGE MRT STATION (CC21),200 HOLLAND AVENUE HOLLAND VILLAGE MRT STATION (CC21) SINGAPORE 278995,278995,23891.21523,32726.41283,1.312240296,103.7963991,BUKIT TIMAH,CENTRAL REGION
79,NE14,Hougang,North East Line,Purple,20/06/2003,MRT,80,HOUGANG CENTRAL,HOUGANG MRT STATION (NE14),80 HOUGANG CENTRAL HOUGANG MRT STATION (NE14) SINGAPORE 538758,538758,34572.87525,39256.12828,1.371292266,103.8923805,HOUGANG,NORTH-EAST REGION
80,DT22,Jalan Besar,Downtown Line,Blue,21/10/2017,MRT,90,JALAN BESAR,JALAN BESAR MRT STATION (DT22),90 JALAN BESAR JALAN BESAR MRT STATION (DT22) SINGAPORE 208826,208826,30445.85298,31944.74962,1.305171388,103.8552957,ROCHOR,CENTRAL REGION
81,BP12,Jelapang,Bukit Panjang LRT,Grey,6/11/1999,LRT,70,BUKIT PANJANG RING ROAD,JELAPANG LRT STATION (BP12),70 BUKIT PANJANG RING ROAD JELAPANG LRT STATION (BP12) SINGAPORE 679941,679941,20345.17111,40964.20969,1.38673927,103.7645341,BUKIT PANJANG,WEST REGION
82,EW29,Joo Koon,East-West Line,Green,28/02/2009,MRT,91,JOO KOON CIRCLE,JOO KOON MRT STATION (EW29),91 JOO KOON CIRCLE JOO KOON MRT STATION (EW29) SINGAPORE 629116,629116,10756.33797,34438.26178,1.327717041,103.678375,PIONEER,WEST REGION
83,NS1,Jurong East,North-South Line ,Red,10/03/1990,MRT,10,JURONG EAST STREET 12,JURONG EAST MRT STATION (EW24 / NS1),10 JURONG EAST STREET 12 JURONG EAST MRT STATION (EW24 / NS1) SINGAPORE 609690,609690,17869.05705,35038.96887,1.333152816,103.7422863,JURONG EAST,WEST REGION
84,EW24,Jurong East,East-West Line,Green,5/11/1988,MRT,10,JURONG EAST STREET 12,JURONG EAST MRT STATION (EW24 / NS1),10 JURONG EAST STREET 12 JURONG EAST MRT STATION (EW24 / NS1) SINGAPORE 609690,609690,17869.05705,35038.96887,1.333152816,103.7422863,JURONG EAST,WEST REGION
85,PE5,Kadaloor,Punggol LRT,Grey,29/01/2005,LRT,60,PUNGGOL DRIVE,KADALOOR LRT STATION (PE5),60 PUNGGOL DRIVE KADALOOR LRT STATION (PE5) SINGAPORE 828853,828853,37265.31667,42376.28659,1.399509106,103.916575,PUNGGOL,NORTH-EAST REGION
86,DT28,Kaki Bukit,Downtown Line,Blue,21/10/2017,MRT,30,KAKI BUKIT AVENUE 1,KAKI BUKIT MRT STATION (DT28),30 KAKI BUKIT AVENUE 1 KAKI BUKIT MRT STATION (DT28) SINGAPORE 415804,415804,36362.37828,35239.55226,1.33496736,103.9084593,BEDOK,EAST REGION
87,EW10,Kallang,East-West Line,Green,4/11/1989,MRT,5,SIMS AVENUE,KALLANG MRT STATION (EW10),5 SIMS AVENUE KALLANG MRT STATION (EW10) SINGAPORE 387405,387405,32236.60384,32643.33024,1.31148891,103.8713865,KALLANG,CENTRAL REGION
88,SE4,Kangkar,Sengkang LRT,Grey,18/01/2003,LRT,20,RIVERVALE DRIVE,KANGKAR LRT STATION (SE4),20 RIVERVALE DRIVE KANGKAR LRT STATION (SE4) SINGAPORE 545052,545052,35668.44819,40656.79455,1.383959117,103.9022254,SENGKANG,NORTH-EAST REGION
89,TE24,Katong Park,Thomson-East Coast Line,Brown,23/06/2024,MRT,45,MEYER ROAD,KATONG PARK MRT STATION (TE24),45 MEYER ROAD KATONG PARK MRT STATION (TE24) SINGAPORE 437870,437870,33882.89095,31133.19094,1.297831478,103.8861789,MARINE PARADE,CENTRAL REGION
90,BP3,Keat Hong,Bukit Panjang LRT,Grey,6/11/1999,LRT,30,CHOA CHU KANG WAY,KEAT HONG LRT STATION (BP3),30 CHOA CHU KANG WAY KEAT HONG LRT STATION (BP3) SINGAPORE 688266,688266,18622.58934,40064.62469,1.378603251,103.7490557,CHOA CHU KANG,WEST REGION
91,EW6,Kembangan,East-West Line,Green,4/11/1989,MRT,55,SIMS AVENUE EAST,KEMBANGAN MRT STATION (EW6),55 SIMS AVENUE EAST KEMBANGAN MRT STATION (EW6) SINGAPORE 416551,416551,36861.96149,33699.34405,1.321038134,103.9129479,BEDOK,EAST REGION
92,CC24,Kent Ridge,Circle Line,Orange,8/10/2011,MRT,301,SOUTH BUONA VISTA ROAD,KENT RIDGE MRT STATION (CC24),301 SOUTH BUONA VISTA ROAD KENT RIDGE MRT STATION (CC24) SINGAPORE 118177,118177,22575.01071,30657.93329,1.293533499,103.7845727,QUEENSTOWN,CENTRAL REGION
93,NS14,Khatib,North-South Line ,Red,20/12/1988,MRT,201,YISHUN AVENUE 2,KHATIB MRT STATION (NS14),201 YISHUN AVENUE 2 KHATIB MRT STATION (NS14) SINGAPORE 769092,769092,27962.31086,44352.56799,1.41738337,103.8329799,YISHUN,NORTH REGION
94,DT6,King Albert Park,Downtown Line,Blue,27/12/2015,MRT,2,BLACKMORE DRIVE,KING ALBERT PARK MRT STATION (DT6),2 BLACKMORE DRIVE KING ALBERT PARK MRT STATION (DT6) SINGAPORE 599987,599987,22444.48957,35316.24791,1.335661613,103.7833991,BUKIT TIMAH,CENTRAL REGION
95,NE13,Kovan,North East Line,Purple,20/06/2003,MRT,900,UPPER SERANGOON ROAD,KOVAN MRT STATION (NE13),900 UPPER SERANGOON ROAD KOVAN MRT STATION (NE13) SINGAPORE 534799,534799,33758.7578,38027.27944,1.360179171,103.8850649,HOUGANG,NORTH-EAST REGION
96,NS7,Kranji,North-South Line ,Red,10/02/1996,MRT,960,WOODLANDS ROAD,KRANJI MRT STATION (NS7),960 WOODLANDS ROAD KRANJI MRT STATION (NS7) SINGAPORE 738702,738702,20078.58651,45204.51685,1.425086981,103.7621375,SUNGEI KADUT,NORTH REGION
97,SW3,Kupang,Sengkang LRT,Grey,27/06/2015,LRT,60,FERNVALE STREET,KUPANG LRT STATION (SW3),60 FERNVALE STREET KUPANG LRT STATION (SW3) SINGAPORE 797697,797697,33334.81643,42232.84101,1.39821283,103.8812562,SENGKANG,NORTH-EAST REGION
98,CC27,Labrador Park,Circle Line,Orange,8/10/2011,MRT,701,TELOK BLANGAH ROAD,LABRADOR PARK MRT STATION (CC27),701 TELOK BLANGAH ROAD LABRADOR PARK MRT STATION (CC27) SINGAPORE 109029,109029,24584.77505,28304.9441,1.272254177,103.8026316,BUKIT MERAH,CENTRAL REGION
99,EW26,Lakeside,East-West Line,Green,5/11/1988,MRT,201,BOON LAY WAY,LAKESIDE MRT STATION (EW26),201 BOON LAY WAY LAKESIDE MRT STATION (EW26) SINGAPORE 649845,649845,15494.49695,36267.14703,1.344259115,103.7209491,JURONG WEST,WEST REGION
100,EW11,Lavender,East-West Line,Green,4/11/1989,MRT,50,KALLANG ROAD,LAVENDER MRT STATION (EW11),50 KALLANG ROAD LAVENDER MRT STATION (EW11) SINGAPORE 208699,208699,31277.40623,32188.73379,1.307377817,103.8627676,KALLANG,CENTRAL REGION
101,SW6,Layar,Sengkang LRT,Grey,29/01/2005,LRT,11,SENGKANG WEST AVENUE,LAYAR LRT STATION (SW6),11 SENGKANG WEST AVENUE LAYAR LRT STATION (SW6) SINGAPORE 797700,797700,33198.32332,41554.68266,1.392079837,103.8800296,SENGKANG,NORTH-EAST REGION
102,TE5,Lentor,Thomson-East Coast Line,Brown,28/08/2021,MRT,1,LENTOR DRIVE,LENTOR MRT STATION (TE5),1 LENTOR DRIVE LENTOR MRT STATION (TE5) SINGAPORE 789361,789361,28269.89707,40827.79394,1.38550658,103.8357438,ANG MO KIO,NORTH-EAST REGION
103,NE7,Little India,North East Line,Purple,20/06/2003,MRT,60,BUKIT TIMAH ROAD,LITTLE INDIA MRT STATION (NE7),60 BUKIT TIMAH ROAD LITTLE INDIA MRT STATION (NE7) SINGAPORE 229900,229900,29817.20857,32124.85018,1.306800197,103.8496471,ROCHOR,CENTRAL REGION
104,DT12,Little India,Downtown Line,Blue,27/12/2015,MRT,62,BUKIT TIMAH ROAD,LITTLE INDIA MRT STATION (DT12),62 BUKIT TIMAH ROAD LITTLE INDIA MRT STATION (DT12) SINGAPORE 229902,229902,29707.46188,32148.96262,1.307018268,103.8486609,KALLANG,CENTRAL REGION
105,CC14,Lorong Chuan,Circle Line,Orange,28/05/2009,MRT,150,SERANGOON AVENUE 3,LORONG CHUAN MRT STATION (CC14),150 SERANGOON AVENUE 3 LORONG CHUAN MRT STATION (CC14) SINGAPORE 554533,554533,31431.40547,37079.94437,1.351612171,103.8641519,SERANGOON,NORTH-EAST REGION
106,CC10,MacPherson,Circle Line,Orange,17/04/2010,MRT,171,PAYA LEBAR ROAD,MACPHERSON MRT STATION (CC10),171 PAYA LEBAR ROAD MACPHERSON MRT STATION (CC10) SINGAPORE 409048,409048,34351.61777,34256.51383,1.326077602,103.8903913,GEYLANG,CENTRAL REGION
107,DT26,MacPherson,Downtown Line,Blue,21/10/2017,MRT,10,CIRCUIT LINK,MACPHERSON MRT STATION (DT26),10 CIRCUIT LINK MACPHERSON MRT STATION (DT26) SINGAPORE 378956,378956,34230.01048,34264.54353,1.326150245,103.8892986,GEYLANG,CENTRAL REGION
108,NS27,Marina Bay,North-South Line ,Red,4/11/1989,MRT,21,PARK STREET,MARINA BAY MRT STATION (NS27),21 PARK STREET MARINA BAY MRT STATION (NS27) SINGAPORE 018925,018925,30367.95472,28764.49593,1.276410299,103.8545955,DOWNTOWN CORE,CENTRAL REGION
109,CE2,Marina Bay,Circle Line Extension,Orange,14/01/2012,MRT,23,PARK STREET,MARINA BAY MRT STATION (CE2),23 PARK STREET MARINA BAY MRT STATION (CE2) SINGAPORE 018926,018926,30462.73498,28746.93363,1.276251464,103.8554472,DOWNTOWN CORE,CENTRAL REGION
110,TE20,Marina Bay,Thomson-East Coast Line,Brown,13/11/2022,MRT,25,PARK STREET,MARINA BAY MRT STATION (TE20),25 PARK STREET MARINA BAY MRT STATION (TE20) SINGAPORE 018929,018929,30447.37939,28579.99514,1.274741732,103.8553092,DOWNTOWN CORE,CENTRAL REGION
111,NS28,Marina South Pier,North-South Line ,Red,23/11/2014,MRT,33,MARINA COASTAL DRIVE,MARINA SOUTH PIER MRT STATION (NS28),33 MARINA COASTAL DRIVE MARINA SOUTH PIER MRT STATION (NS28) SINGAPORE 018948,018948,31241.82601,28169.25109,1.271027036,103.8624475,STRAITS VIEW,CENTRAL REGION
112,TE26,Marine Parade,Thomson-East Coast Line,Brown,23/06/2024,MRT,101,MARINE PARADE ROAD,MARINE PARADE MRT STATION (TE26),101 MARINE PARADE ROAD MARINE PARADE MRT STATION (TE26) SINGAPORE 449971,449971,35975.61075,31661.80799,1.302611635,103.9049831,MARINE PARADE,CENTRAL REGION
113,TE27,Marine Terrace,Thomson-East Coast Line,Brown,23/06/2024,MRT,304,MARINE PARADE ROAD,MARINE TERRACE MRT STATION (TE27),304 MARINE PARADE ROAD MARINE TERRACE MRT STATION (TE27) SINGAPORE 449970,449970,37102.26344,32110.05443,1.306665103,103.9151067,MARINE PARADE,CENTRAL REGION
114,NS8,Marsiling,North-South Line ,Red,10/02/1996,MRT,71,WOODLANDS AVENUE 3,MARSILING MRT STATION (NS8),71 WOODLANDS AVENUE 3 MARSILING MRT STATION (NS8) SINGAPORE 739044,739044,21407.04132,46026.51253,1.432521149,103.7740746,WOODLANDS,NORTH REGION
115,CC16,Marymount,Circle Line,Orange,28/05/2009,MRT,60,MARYMOUNT ROAD,MARYMOUNT MRT STATION (CC16),60 MARYMOUNT ROAD MARYMOUNT MRT STATION (CC16) SINGAPORE 573993,573993,28679.36877,36758.71365,1.348707263,103.8394231,BISHAN,CENTRAL REGION
116,DT25,Mattar,Downtown Line,Blue,21/10/2017,MRT,60,MERPATI ROAD,MATTAR MRT STATION (DT25),60 MERPATI ROAD MATTAR MRT STATION (DT25) SINGAPORE 379314,379314,33556.58344,34344.85853,1.326876715,103.8832475,GEYLANG,CENTRAL REGION
117,TE18,Maxwell,Thomson-East Coast Line,Brown,13/11/2022,MRT,321,SOUTH BRIDGE ROAD,MAXWELL MRT STATION (TE18),321 SOUTH BRIDGE ROAD MAXWELL MRT STATION (TE18) SINGAPORE 058841,058841,29175.80884,29220.38855,1.280533298,103.8438837,OUTRAM,CENTRAL REGION
118,TE6,Mayflower,Thomson-East Coast Line,Brown,28/08/2021,MRT,91,ANG MO KIO AVENUE 4,MAYFLOWER MRT STATION (TE6),91 ANG MO KIO AVENUE 4 MAYFLOWER MRT STATION (TE6) SINGAPORE 569900,569900,28361.59505,39274.94719,1.371463188,103.8365678,ANG MO KIO,NORTH-EAST REGION
119,PE2,Meridian,Punggol LRT,Grey,29/01/2005,LRT,60,PUNGGOL FIELD,MERIDIAN LRT STATION (PE2),60 PUNGGOL FIELD MERIDIAN LRT STATION (PE2) SINGAPORE 828857,828857,36416.79334,42089.08825,1.39691205,103.9089502,PUNGGOL,NORTH-EAST REGION
120,CC7,Mountbatten,Circle Line,Orange,17/04/2010,MRT,301,MOUNTBATTEN ROAD,MOUNTBATTEN MRT STATION (CC7),301 MOUNTBATTEN ROAD MOUNTBATTEN MRT STATION (CC7) SINGAPORE 398006,398006,33476.56343,32058.74185,1.306201905,103.8825281,GEYLANG,CENTRAL REGION
121,TE12,Napier,Thomson-East Coast Line,Brown,13/11/2022,MRT,2,NAPIER ROAD,NAPIER MRT STATION (TE12),2 NAPIER ROAD NAPIER MRT STATION (TE12) SINGAPORE 258511,258511,26401.66671,32122.86257,1.306782234,103.8189568,TANGLIN,CENTRAL REGION
122,NS21,Newton,North-South Line ,Red,12/12/1987,MRT,49,SCOTTS ROAD,NEWTON MRT STATION (NS21),49 SCOTTS ROAD NEWTON MRT STATION (NS21) SINGAPORE 228234,228234,28519.28307,32735.07704,1.312318922,103.8379846,NEWTON,CENTRAL REGION
123,DT11,Newton,Downtown Line,Blue,27/12/2015,MRT,235,BUKIT TIMAH ROAD,NEWTON MRT STATION (DT11),235 BUKIT TIMAH ROAD NEWTON MRT STATION (DT11) SINGAPORE 229901,229901,28489.23644,32920.17269,1.313992863,103.8377146,NEWTON,CENTRAL REGION
124,PW5,Nibong,Punggol LRT,Grey,29/06/2014,LRT,41,PUNGGOL WAY,NIBONG LRT STATION (PW5),41 PUNGGOL WAY NIBONG LRT STATION (PW5) SINGAPORE 828862,828862,35458.4814,43741.31838,1.411854477,103.9003395,PUNGGOL,NORTH-EAST REGION
125,CC5,Nicoll Highway,Circle Line,Orange,17/04/2010,MRT,20,REPUBLIC AVENUE,NICOLL HIGHWAY MRT STATION (CC5),20 REPUBLIC AVENUE NICOLL HIGHWAY MRT STATION (CC5) SINGAPORE 038970,038970,31374.16493,31347.15287,1.299766847,103.863637,KALLANG,CENTRAL REGION
126,NS20,Novena,North-South Line ,Red,12/12/1987,MRT,250,THOMSON ROAD,NOVENA MRT STATION (NS20),250 THOMSON ROAD NOVENA MRT STATION (NS20) SINGAPORE 307642,307642,29169.32979,33633.15354,1.320440791,103.8438256,NOVENA,CENTRAL REGION
127,PE6,Oasis,Punggol LRT,Grey,15/06/2007,LRT,50,PUNGGOL DRIVE,OASIS LRT STATION (PE6),50 PUNGGOL DRIVE OASIS LRT STATION (PE6) SINGAPORE 828854,828854,36837.11744,42683.40205,1.40228668,103.9127274,PUNGGOL,NORTH-EAST REGION
128,CC23,one-north,Circle Line,Orange,8/10/2011,MRT,9,AYER RAJAH AVENUE,ONE-NORTH MRT STATION (CC23),9 AYER RAJAH AVENUE ONE-NORTH MRT STATION (CC23) SINGAPORE 138647,138647,22896.07281,31346.4081,1.299759875,103.7874575,QUEENSTOWN,CENTRAL REGION
129,NS22,Orchard,North-South Line ,Red,12/12/1987,MRT,437,ORCHARD ROAD,ORCHARD MRT STATION (NS22),437 ORCHARD ROAD ORCHARD MRT STATION (NS22) SINGAPORE 238878,238878,27880.54765,31813.01658,1.303980137,103.8322452,ORCHARD,CENTRAL REGION
130,TE14,Orchard,Thomson-East Coast Line,Brown,13/11/2022,MRT,301,ORCHARD BOULEVARD,ORCHARD MRT STATION (TE14),301 ORCHARD BOULEVARD ORCHARD MRT STATION (TE14) SINGAPORE 237974,237974,27783.69734,31709.53249,1.303044263,103.831375,RIVER VALLEY,CENTRAL REGION
131,TE13,Orchard Boulevard,Thomson-East Coast Line,Brown,13/11/2022,MRT,20,ORCHARD BOULEVARD,ORCHARD BOULEVARD MRT STATION (TE13),20 ORCHARD BOULEVARD ORCHARD BOULEVARD MRT STATION (TE13) SINGAPORE 248654,248654,26948.29454,31640.75525,1.302422248,103.8238685,RIVER VALLEY,CENTRAL REGION
132,EW16,Outram Park,East-West Line,Green,12/12/1987,MRT,10,OUTRAM ROAD,OUTRAM PARK MRT STATION (EW16),10 OUTRAM ROAD OUTRAM PARK MRT STATION (EW16) SINGAPORE 169037,169037,28646.87267,29316.7804,1.281405048,103.839131,OUTRAM,CENTRAL REGION
133,NE3,Outram Park,North East Line,Purple,20/06/2003,MRT,300,EU TONG SEN STREET,OUTRAM PARK MRT STATION (NE3),300 EU TONG SEN STREET OUTRAM PARK MRT STATION (NE3) SINGAPORE 059816,059816,28681.24929,29130.52227,1.279720594,103.8394399,BUKIT MERAH,CENTRAL REGION
134,TE17,Outram Park,Thomson-East Coast Line,Brown,13/11/2022,MRT,13,OUTRAM ROAD,OUTRAM PARK MRT STATION (TE17),13 OUTRAM ROAD OUTRAM PARK MRT STATION (TE17) SINGAPORE 169080,169080,28647.60482,29308.44266,1.281329644,103.8391376,OUTRAM,CENTRAL REGION
135,CC26,Pasir Panjang,Circle Line,Orange,8/10/2011,MRT,119,PASIR PANJANG ROAD,PASIR PANJANG MRT STATION (CC26),119 PASIR PANJANG ROAD PASIR PANJANG MRT STATION (CC26) SINGAPORE 117424,117424,23329.26471,28742.76576,1.276213522,103.7913503,QUEENSTOWN,CENTRAL REGION
136,EW1,Pasir Ris,East-West Line,Green,16/12/1989,MRT,10,PASIR RIS CENTRAL,PASIR RIS MRT STATION (EW1),10 PASIR RIS CENTRAL PASIR RIS MRT STATION (EW1) SINGAPORE 519634,519634,40905.59746,39449.98234,1.373043316,103.9492845,PASIR RIS,EAST REGION
137,EW8,Paya Lebar,East-West Line,Green,4/11/1989,MRT,30,PAYA LEBAR ROAD,PAYA LEBAR MRT STATION (EW8),30 PAYA LEBAR ROAD PAYA LEBAR MRT STATION (EW8) SINGAPORE 409006,409006,34648.72363,33375.66886,1.318111492,103.8930608,GEYLANG,CENTRAL REGION
138,CC9,Paya Lebar,Circle Line,Orange,17/04/2010,MRT,15,PAYA LEBAR ROAD,PAYA LEBAR MRT STATION (CC9),15 PAYA LEBAR ROAD PAYA LEBAR MRT STATION (CC9) SINGAPORE 409049,409049,34559.69169,33280.11819,1.317247385,103.8922608,GEYLANG,CENTRAL REGION
139,BP8,Pending,Bukit Panjang LRT,Grey,6/11/1999,LRT,9,PENDING ROAD,PENDING LRT STATION (BP8),9 PENDING ROAD PENDING LRT STATION (BP8) SINGAPORE 678296,678296,21093.77925,39791.70418,1.376135743,103.7712612,BUKIT PANJANG,WEST REGION
140,BP7,Petir,Bukit Panjang LRT,Grey,6/11/1999,LRT,31,PETIR ROAD,PETIR LRT STATION (BP7),31 PETIR ROAD PETIR LRT STATION (BP7) SINGAPORE 678269,678269,20580.14797,39972.65182,1.377772043,103.7666458,BUKIT PANJANG,WEST REGION
141,BP5,Phoenix,Bukit Panjang LRT,Grey,6/11/1999,LRT,40,CHOA CHU KANG ROAD,PHOENIX LRT STATION (BP5),40 CHOA CHU KANG ROAD PHOENIX LRT STATION (BP5) SINGAPORE 689483,689483,19617.48816,40065.94041,1.378615451,103.7579956,CHOA CHU KANG,WEST REGION
142,EW28,Pioneer,East-West Line,Green,28/02/2009,MRT,31,JURONG WEST STREET 63,PIONEER MRT STATION (EW28),31 JURONG WEST STREET 63 PIONEER MRT STATION (EW28) SINGAPORE 648310,648310,12864.96983,35529.51155,1.337587011,103.6973216,JURONG WEST,WEST REGION
143,NE10,Potong Pasir,North East Line,Purple,20/06/2003,MRT,55,UPPER SERANGOON ROAD,POTONG PASIR MRT STATION (NE10),55 UPPER SERANGOON ROAD POTONG PASIR MRT STATION (NE10) SINGAPORE 347694,347694,31977.16676,34842.7251,1.33137949,103.8690557,TOA PAYOH,CENTRAL REGION
144,CC4,Promenade,Circle Line,Orange,17/04/2010,MRT,2,TEMASEK AVENUE,PROMENADE MRT STATION (CC4),2 TEMASEK AVENUE PROMENADE MRT STATION (CC4) SINGAPORE 039193,039193,31008.36188,30709.25781,1.293997986,103.86035,DOWNTOWN CORE,CENTRAL REGION
145,DT15,Promenade,Downtown Line,Blue,22/12/2013,MRT,10,TEMASEK AVENUE,PROMENADE MRT STATION (DT15),10 TEMASEK AVENUE PROMENADE MRT STATION (DT15) SINGAPORE 039194,039194,31068.66081,30586.93695,1.292891754,103.8608918,DOWNTOWN CORE,CENTRAL REGION
146,NE17,Punggol,North East Line,Purple,20/06/2003,MRT,70,PUNGGOL CENTRAL,PUNGGOL MRT STATION (NE17),70 PUNGGOL CENTRAL PUNGGOL MRT STATION (NE17) SINGAPORE 828868,828868,35651.3828,42933.24827,1.404546537,103.9020726,PUNGGOL,NORTH-EAST REGION
147,PTC,Punggol,Punggol LRT,Grey,29/01/2005,LRT,70,PUNGGOL CENTRAL,PUNGGOL LRT STATION (PTC),70 PUNGGOL CENTRAL PUNGGOL LRT STATION (PTC) SINGAPORE 828868,828868,35689.13899,43004.92022,1.405194701,103.9024119,PUNGGOL,NORTH-EAST REGION
148,NE18,Punggol Coast,North East Line,Purple,10/12/2024,MRT,101,NEW PUNGGOL ROAD,PUNGGOL COAST MRT STATION (NE18),101 NEW PUNGGOL ROAD PUNGGOL COAST MRT STATION (NE18) SINGAPORE 828604,828604,36552.07067,44081.13346,1.414927334,103.9101664,PUNGGOL,NORTH-EAST REGION
149,PW3,Punggol Point,Punggol LRT,Grey,29/12/2016,LRT,81,PUNGGOL WAY,PUNGGOL POINT LRT STATION (PW3),81 PUNGGOL WAY PUNGGOL POINT LRT STATION (PW3) SINGAPORE 828644,828644,36160.82747,44293.55608,1.41684852,103.9066508,PUNGGOL,NORTH-EAST REGION
150,EW19,Queenstown,East-West Line,Green,12/03/1988,MRT,301,COMMONWEALTH AVENUE,QUEENSTOWN MRT STATION (EW19),301 COMMONWEALTH AVENUE QUEENSTOWN MRT STATION (EW19) SINGAPORE 149729,149729,24968.26735,30770.39111,1.294550852,103.8060772,QUEENSTOWN,CENTRAL REGION
151,NS26,Raffles Place,North-South Line ,Red,12/12/1987,MRT,5,RAFFLES PLACE,RAFFLES PLACE MRT STATION (EW14 / NS26),5 RAFFLES PLACE RAFFLES PLACE MRT STATION (EW14 / NS26) SINGAPORE 048618,048618,30019.18053,29617.61258,1.28412561,103.8514617,DOWNTOWN CORE,CENTRAL REGION
152,EW14,Raffles Place,East-West Line,Green,12/12/1987,MRT,5,RAFFLES PLACE,RAFFLES PLACE MRT STATION (EW14 / NS26),5 RAFFLES PLACE RAFFLES PLACE MRT STATION (EW14 / NS26) SINGAPORE 048618,048618,30019.18053,29617.61258,1.28412561,103.8514617,DOWNTOWN CORE,CENTRAL REGION
153,SE5,Ranggung,Sengkang LRT,Grey,18/01/2003,LRT,30,SENGKANG EAST AVENUE,RANGGUNG LRT STATION (SE5),30 SENGKANG EAST AVENUE RANGGUNG LRT STATION (SE5) SINGAPORE 545046,545046,35108.59401,40687.12534,1.384233559,103.8971947,SENGKANG,NORTH-EAST REGION
154,EW18,Redhill,East-West Line,Green,12/03/1988,MRT,920,TIONG BAHRU ROAD,REDHILL MRT STATION (EW18),920 TIONG BAHRU ROAD REDHILL MRT STATION (EW18) SINGAPORE 158792,158792,26155.0535,30226.75978,1.289634534,103.816741,BUKIT MERAH,CENTRAL REGION
155,SW8,Renjong,Sengkang LRT,Grey,29/01/2005,LRT,60,SENGKANG EAST AVENUE,RENJONG LRT STATION (SW8),60 SENGKANG EAST AVENUE RENJONG LRT STATION (SW8) SINGAPORE 545049,545049,34377.05695,40959.89853,1.38670059,103.8906213,SENGKANG,NORTH-EAST REGION
156,PE4,Riviera,Punggol LRT,Grey,29/01/2005,LRT,40,PUNGGOL EAST,RIVIERA LRT STATION (PE4),40 PUNGGOL EAST RIVIERA LRT STATION (PE4) SINGAPORE 828852,828852,37220.19903,41824.59056,1.394519785,103.9161694,PUNGGOL,NORTH-EAST REGION
157,DT13,Rochor,Downtown Line,Blue,27/12/2015,MRT,11,ROCHOR CANAL ROAD,ROCHOR MRT STATION (DT13),11 ROCHOR CANAL ROAD ROCHOR MRT STATION (DT13) SINGAPORE 188505,188505,30164.70185,31798.87668,1.303852185,103.8527694,ROCHOR,CENTRAL REGION
158,SE2,Rumbia,Sengkang LRT,Grey,18/01/2003,LRT,70,RIVERVALE DRIVE,RUMBIA LRT STATION (SE2),70 RIVERVALE DRIVE RUMBIA LRT STATION (SE2) SINGAPORE 545054,545054,36085.55239,41487.15663,1.391468495,103.9059736,SENGKANG,NORTH-EAST REGION
159,PW1,Sam Kee,Punggol LRT,Grey,29/02/2016,LRT,10,SENTUL CRESCENT,SAM KEE LRT STATION (PW1),10 SENTUL CRESCENT SAM KEE LRT STATION (PW1) SINGAPORE 828851,828851,35958.39671,43493.44702,1.409612685,103.9048316,PUNGGOL,NORTH-EAST REGION
160,PW4,Samudera,Punggol LRT,Grey,31/03/2017,LRT,61,PUNGGOL WAY,SAMUDERA LRT STATION (PW4),61 PUNGGOL WAY SAMUDERA LRT STATION (PW4) SINGAPORE 828645,828645,35660.65979,44188.84844,1.415901722,103.9021563,PUNGGOL,NORTH-EAST REGION
161,BP11,Segar,Bukit Panjang LRT,Grey,6/11/1999,LRT,50,BUKIT PANJANG RING ROAD,SEGAR LRT STATION (BP11),50 BUKIT PANJANG RING ROAD SEGAR LRT STATION (BP11) SINGAPORE 679940,679940,20908.91043,41079.83508,1.387785087,103.7695997,BUKIT PANJANG,WEST REGION
162,NS11,Sembawang,North-South Line ,Red,10/02/1996,MRT,11,CANBERRA ROAD,SEMBAWANG MRT STATION (NS11),11 CANBERRA ROAD SEMBAWANG MRT STATION (NS11) SINGAPORE 759775,759775,26522.98826,47854.19984,1.449050822,103.8200461,SEMBAWANG,NORTH REGION
163,NE16,Sengkang,North East Line,Purple,20/06/2003,MRT,5,SENGKANG SQUARE,SENGKANG MRT STATION (NE16),5 SENGKANG SQUARE SENGKANG MRT STATION (NE16) SINGAPORE 545062,545062,34918.27401,41512.12769,1.391694626,103.8954847,SENGKANG,NORTH-EAST REGION
164,STC,Sengkang,Sengkang LRT,Grey,18/01/2003,LRT,5,SENGKANG SQUARE,SENGKANG LRT STATION (STC),5 SENGKANG SQUARE SENGKANG LRT STATION (STC) SINGAPORE 545062,545062,34913.58786,41502.6997,1.391609364,103.8954426,SENGKANG,NORTH-EAST REGION
165,BP13,Senja,Bukit Panjang LRT,Grey,6/11/1999,LRT,90,BUKIT PANJANG RING ROAD,SENJA LRT STATION (BP13),90 BUKIT PANJANG RING ROAD SENJA LRT STATION (BP13) SINGAPORE 679942,679942,20101.4576,40520.39106,1.382725471,103.7623443,BUKIT PANJANG,WEST REGION
166,NE12,Serangoon,North East Line,Purple,20/06/2003,MRT,600,UPPER SERANGOON ROAD,SERANGOON MRT STATION (NE12),600 UPPER SERANGOON ROAD SERANGOON MRT STATION (NE12) SINGAPORE 534801,534801,32480.07294,36869.39301,1.349707881,103.8735748,SERANGOON,NORTH-EAST REGION
167,CC13,Serangoon,Circle Line,Orange,28/05/2009,MRT,21,SERANGOON CENTRAL,SERANGOON MRT STATION (CC13),21 SERANGOON CENTRAL SERANGOON MRT STATION (CC13) SINGAPORE 556082,556082,32390.68525,36971.75455,1.350633615,103.8727717,SERANGOON,NORTH-EAST REGION
168,TE19,Shenton Way,Thomson-East Coast Line,Brown,13/11/2022,MRT,2,PARK STREET,SHENTON WAY MRT STATION (TE19),2 PARK STREET SHENTON WAY MRT STATION (TE19) SINGAPORE 018928,018928,29897.41915,28908.96172,1.277716828,103.8503676,DOWNTOWN CORE,CENTRAL REGION
169,TE28,Siglap,Thomson-East Coast Line,Brown,23/06/2024,MRT,1000,MARINE PARADE ROAD,SIGLAP MRT STATION (TE28),1000 MARINE PARADE ROAD SIGLAP MRT STATION (TE28) SINGAPORE 449969,449969,38762.61178,32479.831,1.310008694,103.9300258,BEDOK,EAST REGION
170,EW3,Simei,East-West Line,Green,16/12/1989,MRT,30,SIMEI STREET 3,SIMEI MRT STATION (EW3),30 SIMEI STREET 3 SIMEI MRT STATION (EW3) SINGAPORE 529888,529888,41361.22817,36149.75278,1.343197079,103.9533772,TAMPINES,EAST REGION
171,DT7,Sixth Avenue,Downtown Line,Blue,27/12/2015,MRT,777,BUKIT TIMAH ROAD,SIXTH AVENUE MRT STATION (DT7),777 BUKIT TIMAH ROAD SIXTH AVENUE MRT STATION (DT7) SINGAPORE 269784,269784,23947.74937,34785.0233,1.330857645,103.7969068,BUKIT TIMAH,CENTRAL REGION
172,NS23,Somerset,North-South Line ,Red,12/12/1987,MRT,1,SOMERSET ROAD,SOMERSET MRT STATION (NS23),1 SOMERSET ROAD SOMERSET MRT STATION (NS23) SINGAPORE 238162,238162,28641.83466,31402.12452,1.300264167,103.8390858,ORCHARD,CENTRAL REGION
173,PW7,Soo Teck,Punggol LRT,Grey,29/06/2014,LRT,21,PUNGGOL WAY,SOO TECK LRT STATION (PW7),21 PUNGGOL WAY SOO TECK LRT STATION (PW7) SINGAPORE 828864,828864,35119.198,43019.12583,1.405323319,103.8972905,PUNGGOL,NORTH-EAST REGION
174,BP2,South View,Bukit Panjang LRT,Grey,6/11/1999,LRT,50,CHOA CHU KANG WAY,SOUTH VIEW LRT STATION (BP2),50 CHOA CHU KANG WAY SOUTH VIEW LRT STATION (BP2) SINGAPORE 688265,688265,18203.72428,40252.06862,1.380298287,103.7452918,CHOA CHU KANG,WEST REGION
175,TE4,Springleaf,Thomson-East Coast Line,Brown,28/08/2021,MRT,825,UPPER THOMSON ROAD,SPRINGLEAF MRT STATION (TE4),825 UPPER THOMSON ROAD SPRINGLEAF MRT STATION (TE4) SINGAPORE 787140,787140,26279.32794,42162.93444,1.397581061,103.8178569,YISHUN,NORTH REGION
176,CC6,Stadium,Circle Line,Orange,17/04/2010,MRT,3,STADIUM WALK,STADIUM MRT STATION (CC6),3 STADIUM WALK STADIUM MRT STATION (CC6) SINGAPORE 397692,397692,32676.34771,31683.94076,1.302812468,103.8753377,KALLANG,CENTRAL REGION
177,DT10,Stevens,Downtown Line,Blue,27/12/2015,MRT,92,STEVENS ROAD,STEVENS MRT STATION (DT10),92 STEVENS ROAD STEVENS MRT STATION (DT10) SINGAPORE 257877,257877,27188.22996,33591.66086,1.320065558,103.8260244,TANGLIN,CENTRAL REGION
178,TE11,Stevens,Thomson-East Coast Line,Brown,13/11/2022,MRT,82,STEVENS ROAD,STEVENS MRT STATION (TE11),82 STEVENS ROAD STEVENS MRT STATION (TE11) SINGAPORE 257879,257879,27137.32152,33510.81053,1.319334374,103.825567,TANGLIN,CENTRAL REGION
179,PW6,Sumang,Punggol LRT,Grey,29/06/2014,LRT,31,PUNGGOL WAY,SUMANG LRT STATION (PW6),31 PUNGGOL WAY SUMANG LRT STATION (PW6) SINGAPORE 828863,828863,35260.29139,43365.13011,1.408452419,103.8985585,PUNGGOL,NORTH-EAST REGION
180,CC11,Tai Seng,Circle Line,Orange,17/04/2010,MRT,33,UPPER PAYA LEBAR ROAD,TAI SENG MRT STATION (CC11),33 UPPER PAYA LEBAR ROAD TAI SENG MRT STATION (CC11) SINGAPORE 534803,534803,34128.79235,35258.74882,1.335141501,103.8883893,HOUGANG,NORTH-EAST REGION
181,EW2,Tampines,East-West Line,Green,16/12/1989,MRT,20,TAMPINES CENTRAL 1,TAMPINES MRT STATION (EW2),20 TAMPINES CENTRAL 1 TAMPINES MRT STATION (EW2) SINGAPORE 529538,529538,40444.9732,37267.02627,1.353301676,103.9451446,TAMPINES,EAST REGION
182,DT32,Tampines,Downtown Line,Blue,21/10/2017,MRT,15,TAMPINES CENTRAL 1,TAMPINES MRT STATION (DT32),15 TAMPINES CENTRAL 1 TAMPINES MRT STATION (DT32) SINGAPORE 529544,529544,40207.39523,37471.43946,1.355150411,103.9430099,TAMPINES,EAST REGION
183,DT33,Tampines East,Downtown Line,Blue,21/10/2017,MRT,20,TAMPINES AVENUE 7,TAMPINES EAST MRT STATION (DT33),20 TAMPINES AVENUE 7 TAMPINES EAST MRT STATION (DT33) SINGAPORE 529623,529623,41501.07485,37586.61776,1.356191483,103.9546345,TAMPINES,EAST REGION
184,DT31,Tampines West,Downtown Line,Blue,21/10/2017,MRT,2,TAMPINES AVENUE 4,TAMPINES WEST MRT STATION (DT31),2 TAMPINES AVENUE 4 TAMPINES WEST MRT STATION (DT31) SINGAPORE 529683,529683,39698.52759,36406.01433,1.345515306,103.938437,TAMPINES,EAST REGION
185,DT8,Tan Kah Kee,Downtown Line,Blue,27/12/2015,MRT,651,BUKIT TIMAH ROAD,TAN KAH KEE MRT STATION (DT8),651 BUKIT TIMAH ROAD TAN KAH KEE MRT STATION (DT8) SINGAPORE 266268,266268,25155.62211,34198.80531,1.325556235,103.8077603,BUKIT TIMAH,CENTRAL REGION
186,EW4,Tanah Merah,East-West Line,Green,4/11/1989,MRT,920,NEW UPPER CHANGI ROAD,TANAH MERAH MRT STATION (EW4),920 NEW UPPER CHANGI ROAD TANAH MERAH MRT STATION (EW4) SINGAPORE 467356,467356,40579.09978,34379.43168,1.327187291,103.9463486,BEDOK,EAST REGION
187,TE25,Tanjong Katong,Thomson-East Coast Line,Brown,23/06/2024,MRT,2,AMBER ROAD,TANJONG KATONG MRT STATION (TE25),2 AMBER ROAD TANJONG KATONG MRT STATION (TE25) SINGAPORE 439846,439846,35128.21199,31297.73085,1.299319258,103.8973687,MARINE PARADE,CENTRAL REGION
188,EW15,Tanjong Pagar,East-West Line,Green,12/12/1987,MRT,120,MAXWELL ROAD,TANJONG PAGAR MRT STATION (EW15),120 MAXWELL ROAD TANJONG PAGAR MRT STATION (EW15) SINGAPORE 069119,069119,29380.75674,28781.18833,1.276561317,103.8457252,DOWNTOWN CORE,CENTRAL REGION
189,TE23,Tanjong Rhu,Thomson-East Coast Line,Brown,23/06/2024,MRT,2,TANJONG RHU PLACE,TANJONG RHU MRT STATION (TE23),2 TANJONG RHU PLACE TANJONG RHU MRT STATION (TE23) SINGAPORE 436488,436488,32466.63453,31070.53549,1.297265079,103.8734533,KALLANG,CENTRAL REGION
190,BP4,Teck Whye,Bukit Panjang LRT,Grey,6/11/1999,LRT,10,CHOA CHU KANG WAY,TECK WHYE LRT STATION (BP4),10 CHOA CHU KANG WAY TECK WHYE LRT STATION (BP4) SINGAPORE 688267,688267,19140.80002,39852.46077,1.376684679,103.7537122,CHOA CHU KANG,WEST REGION
191,DT18,Telok Ayer,Downtown Line,Blue,22/12/2013,MRT,7,CROSS STREET,TELOK AYER MRT STATION (DT18),7 CROSS STREET TELOK AYER MRT STATION (DT18) SINGAPORE 048416,048416,29706.12592,29390.19539,1.282068948,103.8486488,OUTRAM,CENTRAL REGION
192,CC28,Telok Blangah,Circle Line,Orange,8/10/2011,MRT,463,TELOK BLANGAH ROAD,TELOK BLANGAH MRT STATION (CC28),463 TELOK BLANGAH ROAD TELOK BLANGAH MRT STATION (CC28) SINGAPORE 109028,109028,25378.2908,28133.79905,1.270706477,103.8097616,BUKIT MERAH,CENTRAL REGION
193,SW4,Thanggam,Sengkang LRT,Grey,29/01/2005,LRT,40,FERNVALE ROAD,THANGGAM LRT STATION (SW4),40 FERNVALE ROAD THANGGAM LRT STATION (SW4) SINGAPORE 797699,797699,32709.26871,42133.90039,1.397318156,103.8756352,SENGKANG,NORTH-EAST REGION
194,EW17,Tiong Bahru,East-West Line,Green,12/03/1988,MRT,300,TIONG BAHRU ROAD,TIONG BAHRU MRT STATION (EW17),300 TIONG BAHRU ROAD TIONG BAHRU MRT STATION (EW17) SINGAPORE 168731,168731,27346.33227,29836.20442,1.286102536,103.8274451,BUKIT MERAH,CENTRAL REGION
195,NS19,Toa Payoh,North-South Line ,Red,7/11/1987,MRT,510,LORONG 6 TOA PAYOH,TOA PAYOH MRT STATION (NS19),510 LORONG 6 TOA PAYOH TOA PAYOH MRT STATION (NS19) SINGAPORE 319398,319398,29578.48907,34980.89629,1.332629281,103.8475022,TOA PAYOH,CENTRAL REGION
196,SW7,Tongkang,Sengkang LRT,Grey,29/01/2005,LRT,80,SENGKANG EAST AVENUE,TONGKANG LRT STATION (SW7),80 SENGKANG EAST AVENUE TONGKANG LRT STATION (SW7) SINGAPORE 545050,545050,33845.41322,41252.6176,1.389347947,103.8858442,SENGKANG,NORTH-EAST REGION
197,EW31,Tuas Crescent,East-West Line,Green,18/06/2017,MRT,90,PIONEER ROAD,TUAS CRESCENT MRT STATION (EW31),90 PIONEER ROAD TUAS CRESCENT MRT STATION (EW31) SINGAPORE 639608,639608,7495.837867,33698.72631,1.321026956,103.6490782,TUAS,WEST REGION
198,EW33,Tuas Link,East-West Line,Green,18/06/2017,MRT,20,TUAS WEST DRIVE,TUAS LINK MRT STATION (EW33),20 TUAS WEST DRIVE TUAS LINK MRT STATION (EW33) SINGAPORE 638418,638418,6150.862788,35894.35822,1.340882425,103.6369914,TUAS,WEST REGION
199,EW32,Tuas West Road,East-West Line,Green,18/06/2017,MRT,131,PIONEER ROAD,TUAS WEST ROAD MRT STATION (EW32),131 PIONEER ROAD TUAS WEST ROAD MRT STATION (EW32) SINGAPORE 639609,639609,6442.928612,34689.35177,1.329985047,103.6396166,TUAS,WEST REGION
200,DT27,Ubi,Downtown Line,Blue,21/10/2017,MRT,51,UBI AVENUE 2,UBI MRT STATION (DT27),51 UBI AVENUE 2 UBI MRT STATION (DT27) SINGAPORE 408899,408899,35334.89183,34687.41099,1.32997426,103.8992267,GEYLANG,CENTRAL REGION
201,DT34,Upper Changi,Downtown Line,Blue,21/10/2017,MRT,690,UPPER CHANGI ROAD EAST,UPPER CHANGI MRT STATION (DT34),690 UPPER CHANGI ROAD EAST UPPER CHANGI MRT STATION (DT34) SINGAPORE 485990,485990,42262.18797,35988.65688,1.341739774,103.9614728,TAMPINES,EAST REGION
202,TE8,Upper Thomson,Thomson-East Coast Line,Brown,28/08/2021,MRT,1,JALAN KELI,UPPER THOMSON MRT STATION (TE8),1 JALAN KELI UPPER THOMSON MRT STATION (TE8) SINGAPORE 577937,577937,27953.2465,37390.00369,1.354416434,103.8328985,BISHAN,CENTRAL REGION
203,NS9,Woodlands,North-South Line ,Red,10/02/1996,MRT,30,WOODLANDS AVENUE 2,WOODLANDS MRT STATION (NS9),30 WOODLANDS AVENUE 2 WOODLANDS MRT STATION (NS9) SINGAPORE 738343,738343,22741.59819,46501.7861,1.43681963,103.7860668,WOODLANDS,NORTH REGION
204,TE2,Woodlands,Thomson-East Coast Line,Brown,31/01/2020,MRT,11,WOODLANDS SQUARE,WOODLANDS MRT STATION (TE2),11 WOODLANDS SQUARE WOODLANDS MRT STATION (TE2) SINGAPORE 737736,737736,22949.91913,46417.52233,1.436057617,103.7879388,WOODLANDS,NORTH REGION
205,TE1,Woodlands North,Thomson-East Coast Line,Brown,31/01/2020,MRT,20,WOODLANDS NORTH COAST ROAD,WOODLANDS NORTH MRT STATION (TE1),20 WOODLANDS NORTH COAST ROAD WOODLANDS NORTH MRT STATION (TE1) SINGAPORE 737668,737668,22699.99124,47770.39457,1.448292453,103.7856927,WOODLANDS,NORTH REGION
206,TE3,Woodlands South,Thomson-East Coast Line,Brown,31/01/2020,MRT,30,WOODLANDS DRIVE 17,WOODLANDS SOUTH MRT STATION (TE3),30 WOODLANDS DRIVE 17 WOODLANDS SOUTH MRT STATION (TE3) SINGAPORE 737741,737741,23542.55457,45459.75882,1.427396053,103.7932643,WOODLANDS,NORTH REGION
207,NE11,Woodleigh,North East Line,Purple,20/06/2011,MRT,400,UPPER SERANGOON ROAD,WOODLEIGH MRT STATION (NE11),400 UPPER SERANGOON ROAD WOODLEIGH MRT STATION (NE11) SINGAPORE 347695,347695,32173.31857,35706.37936,1.339190045,103.8708183,TOA PAYOH,CENTRAL REGION
208,NS5,Yew Tee,North-South Line ,Red,10/02/1996,MRT,61,CHOA CHU KANG DRIVE,YEW TEE MRT STATION (NS5),61 CHOA CHU KANG DRIVE YEW TEE MRT STATION (NS5) SINGAPORE 689715,689715,18438.98312,42158.0181,1.397535069,103.7443708,CHOA CHU KANG,WEST REGION
209,NS15,Yio Chu Kang,North-South Line ,Red,7/11/1987,MRT,3000,ANG MO KIO AVENUE 8,YIO CHU KANG MRT STATION (NS15),3000 ANG MO KIO AVENUE 8 YIO CHU KANG MRT STATION (NS15) SINGAPORE 569813,569813,29294.12623,40413.06264,1.381755871,103.8449473,ANG MO KIO,NORTH-EAST REGION
210,NS13,Yishun,North-South Line ,Red,20/12/1988,MRT,301,YISHUN AVENUE 2,YISHUN MRT STATION (NS13),301 YISHUN AVENUE 2 YISHUN MRT STATION (NS13) SINGAPORE 769093,769093,28187.67882,45686.07054,1.429443085,103.835005,YISHUN,NORTH REGION
